{
  "type": "FeatureCollection",
  "features": [
    {
      "type": "Feature",
      "properties": {
        "norad_id": 37546,
        "name": "COSMOS 2251 DEB",
        "group": "cosmos-2251-debris",
        "lat": 42.284349926593144,
        "lon": 133.5489353070518,
        "alt_km": 627.3301831371227,
        "timestamp": "2025-12-02T08:59:33.112665+00:00",
        "meta_object_name": "COSMOS 2251 DEB",
        "meta_object_id": "1993-036BPB",
        "meta_epoch": "2025-12-01T01:57:48.654432",
        "meta_mean_motion": 14.7972634,
        "meta_eccentricity": 0.00071974,
        "meta_inclination": 74.0208,
        "meta_ra_of_asc_node": 120.9905,
        "meta_arg_of_pericenter": 150.0376,
        "meta_mean_anomaly": 210.1213,
        "meta_ephemeris_type": 0,
        "meta_classification_type": "U",
        "meta_norad_cat_id": 37546,
        "meta_element_set_no": 999,
        "meta_rev_at_epoch": 65715,
        "meta_bstar": 0.0028528218,
        "meta_mean_motion_dot": 0.0002149,
        "meta_mean_motion_ddot": 0,
        "tle_line1": "1 37546U 93036BPB 25335.08181313  .00021490  00000+0  28528-2 0  9991",
        "tle_line2": "2 37546  74.0208 120.9905 0007197 150.0376 210.1213 14.79726340657157"
      },
      "geometry": {
        "type": "Point",
        "coordinates": [
          133.5489353070518,
          42.284349926593144
        ]
      }
    },
    {
      "type": "Feature",
      "properties": {
        "norad_id": 37959,
        "name": "COSMOS 2251 DEB",
        "group": "cosmos-2251-debris",
        "lat": -16.849497123852277,
        "lon": 71.7121942290566,
        "alt_km": 725.3534694113014,
        "timestamp": "2025-12-02T08:59:33.112676+00:00",
        "meta_object_name": "COSMOS 2251 DEB",
        "meta_object_id": "1993-036BPJ",
        "meta_epoch": "2025-12-01T13:23:10.736160",
        "meta_mean_motion": 14.58009519,
        "meta_eccentricity": 0.00585454,
        "meta_inclination": 74.0106,
        "meta_ra_of_asc_node": 78.2498,
        "meta_arg_of_pericenter": 223.2236,
        "meta_mean_anomaly": 152.6035,
        "meta_ephemeris_type": 0,
        "meta_classification_type": "U",
        "meta_norad_cat_id": 37959,
        "meta_element_set_no": 999,
        "meta_rev_at_epoch": 79964,
        "meta_bstar": 0.00093616583,
        "meta_mean_motion_dot": 4.376e-05,
        "meta_mean_motion_ddot": 0,
        "tle_line1": "1 37959U 93036BPJ 25335.55776315  .00004376  00000+0  93617-3 0  9999",
        "tle_line2": "2 37959  74.0106  78.2498 0058545 223.2236 152.6035 14.58009519799647"
      },
      "geometry": {
        "type": "Point",
        "coordinates": [
          71.7121942290566,
          -16.849497123852277
        ]
      }
    },
    {
      "type": "Feature",
      "properties": {
        "norad_id": 37960,
        "name": "COSMOS 2251 DEB",
        "group": "cosmos-2251-debris",
        "lat": -72.65166329062994,
        "lon": 138.86199508364328,
        "alt_km": 756.4012885090187,
        "timestamp": "2025-12-02T08:59:33.112686+00:00",
        "meta_object_name": "COSMOS 2251 DEB",
        "meta_object_id": "1993-036BPK",
        "meta_epoch": "2025-12-01T21:26:55.399200",
        "meta_mean_motion": 14.07801052,
        "meta_eccentricity": 0.0249831,
        "meta_inclination": 74.0589,
        "meta_ra_of_asc_node": 205.8992,
        "meta_arg_of_pericenter": 227.2395,
        "meta_mean_anomaly": 130.7486,
        "meta_ephemeris_type": 0,
        "meta_classification_type": "U",
        "meta_norad_cat_id": 37960,
        "meta_element_set_no": 999,
        "meta_rev_at_epoch": 77253,
        "meta_bstar": 0.0010378,
        "meta_mean_motion_dot": 2.314e-05,
        "meta_mean_motion_ddot": 0,
        "tle_line1": "1 37960U 93036BPK 25335.89369675  .00002314  00000+0  10378-2 0  9997",
        "tle_line2": "2 37960  74.0589 205.8992 0249831 227.2395 130.7486 14.07801052772533"
      },
      "geometry": {
        "type": "Point",
        "coordinates": [
          138.86199508364328,
          -72.65166329062994
        ]
      }
    },
    {
      "type": "Feature",
      "properties": {
        "norad_id": 37961,
        "name": "COSMOS 2251 DEB",
        "group": "cosmos-2251-debris",
        "lat": 50.76712373356106,
        "lon": 177.32918390628166,
        "alt_km": 724.324162484947,
        "timestamp": "2025-12-02T08:59:33.112697+00:00",
        "meta_object_name": "COSMOS 2251 DEB",
        "meta_object_id": "1993-036BPL",
        "meta_epoch": "2025-12-01T04:44:47.787648",
        "meta_mean_motion": 14.57792656,
        "meta_eccentricity": 0.0041244,
        "meta_inclination": 74.04,
        "meta_ra_of_asc_node": 159.049,
        "meta_arg_of_pericenter": 241.5465,
        "meta_mean_anomaly": 118.1542,
        "meta_ephemeris_type": 0,
        "meta_classification_type": "U",
        "meta_norad_cat_id": 37961,
        "meta_element_set_no": 999,
        "meta_rev_at_epoch": 79897,
        "meta_bstar": 0.001072,
        "meta_mean_motion_dot": 4.934e-05,
        "meta_mean_motion_ddot": 0,
        "tle_line1": "1 37961U 93036BPL 25335.19777532  .00004934  00000+0  10720-2 0  9997",
        "tle_line2": "2 37961  74.0400 159.0490 0041244 241.5465 118.1542 14.57792656798977"
      },
      "geometry": {
        "type": "Point",
        "coordinates": [
          177.32918390628166,
          50.76712373356106
        ]
      }
    },
    {
      "type": "Feature",
      "properties": {
        "norad_id": 37966,
        "name": "COSMOS 2251 DEB",
        "group": "cosmos-2251-debris",
        "lat": -51.36989451320643,
        "lon": -128.99974125777703,
        "alt_km": 545.7234951684877,
        "timestamp": "2025-12-02T08:59:33.112707+00:00",
        "meta_object_name": "COSMOS 2251 DEB",
        "meta_object_id": "1993-036BPR",
        "meta_epoch": "2025-12-02T02:52:36.044832",
        "meta_mean_motion": 15.10922267,
        "meta_eccentricity": 0.000843,
        "meta_inclination": 73.9762,
        "meta_ra_of_asc_node": 252.6058,
        "meta_arg_of_pericenter": 126.3763,
        "meta_mean_anomaly": 233.8208,
        "meta_ephemeris_type": 0,
        "meta_classification_type": "U",
        "meta_norad_cat_id": 37966,
        "meta_element_set_no": 999,
        "meta_rev_at_epoch": 85182,
        "meta_bstar": 0.0034796,
        "meta_mean_motion_dot": 0.00058491,
        "meta_mean_motion_ddot": 0,
        "tle_line1": "1 37966U 93036BPR 25336.11986163  .00058491  00000+0  34796-2 0  9993",
        "tle_line2": "2 37966  73.9762 252.6058 0008430 126.3763 233.8208 15.10922267851823"
      },
      "geometry": {
        "type": "Point",
        "coordinates": [
          -128.99974125777703,
          -51.36989451320643
        ]
      }
    },
    {
      "type": "Feature",
      "properties": {
        "norad_id": 37967,
        "name": "COSMOS 2251 DEB",
        "group": "cosmos-2251-debris",
        "lat": 60.95133227252819,
        "lon": -54.491009472424345,
        "alt_km": 858.4784076778733,
        "timestamp": "2025-12-02T08:59:33.112717+00:00",
        "meta_object_name": "COSMOS 2251 DEB",
        "meta_object_id": "1993-036BPS",
        "meta_epoch": "2025-12-01T22:27:16.344576",
        "meta_mean_motion": 14.40342761,
        "meta_eccentricity": 0.015073,
        "meta_inclination": 74.0139,
        "meta_ra_of_asc_node": 157.3949,
        "meta_arg_of_pericenter": 298.516,
        "meta_mean_anomaly": 60.0886,
        "meta_ephemeris_type": 0,
        "meta_classification_type": "U",
        "meta_norad_cat_id": 37967,
        "meta_element_set_no": 999,
        "meta_rev_at_epoch": 64580,
        "meta_bstar": 0.0014485,
        "meta_mean_motion_dot": 5.228e-05,
        "meta_mean_motion_ddot": 0,
        "tle_line1": "1 37967U 93036BPS 25335.93560584  .00005228  00000+0  14485-2 0  9991",
        "tle_line2": "2 37967  74.0139 157.3949 0150730 298.5160  60.0886 14.40342761645806"
      },
      "geometry": {
        "type": "Point",
        "coordinates": [
          -54.491009472424345,
          60.95133227252819
        ]
      }
    },
    {
      "type": "Feature",
      "properties": {
        "norad_id": 37968,
        "name": "COSMOS 2251 DEB",
        "group": "cosmos-2251-debris",
        "lat": -10.60236267806425,
        "lon": 115.36436614791387,
        "alt_km": 613.4259277104884,
        "timestamp": "2025-12-02T08:59:33.112727+00:00",
        "meta_object_name": "COSMOS 2251 DEB",
        "meta_object_id": "1993-036BPT",
        "meta_epoch": "2025-12-01T14:32:40.112448",
        "meta_mean_motion": 15.00143436,
        "meta_eccentricity": 0.00809552,
        "meta_inclination": 73.9999,
        "meta_ra_of_asc_node": 293.8509,
        "meta_arg_of_pericenter": 52.3614,
        "meta_mean_anomaly": 308.4882,
        "meta_ephemeris_type": 0,
        "meta_classification_type": "U",
        "meta_norad_cat_id": 37968,
        "meta_element_set_no": 999,
        "meta_rev_at_epoch": 60052,
        "meta_bstar": 0.00099024545,
        "meta_mean_motion_dot": 0.00013234,
        "meta_mean_motion_ddot": 0,
        "tle_line1": "1 37968U 93036BPT 25335.60601982  .00013234  00000+0  99025-3 0  9994",
        "tle_line2": "2 37968  73.9999 293.8509 0080955  52.3614 308.4882 15.00143436600528"
      },
      "geometry": {
        "type": "Point",
        "coordinates": [
          115.36436614791387,
          -10.60236267806425
        ]
      }
    }
  ]
}